ONEWEB-0545             
1 54647U 22166F   25203.53248093  .00000148  00000+0  32697-3 0  9991
2 54647  87.9271 309.7524 0002304 112.1994 247.9385 13.21826758127953
ONEWEB-0580             
1 54648U 22166G   25203.58135947  .00000002  00000+0 -26031-4 0  9996
2 54648  87.9274 309.7403 0001963 111.3944 248.7400 13.21825196128468
ONEWEB-0582             
1 54649U 22166H   25204.22950600  .00000081  00000+0  16341-3 0  9998
2 54649  87.9263 309.6100 0002052 115.4596 244.6750 13.21825603128532
ONEWEB-0583             
1 54650U 22166J   25203.55928716  .00000039  00000+0  63189-4 0  9994
2 54650  87.9273 309.7639 0002059 102.7009 257.4355 13.21824801127988
ONEWEB-0584             
1 54651U 22166K   25203.57978553  .00000023  00000+0  25270-4 0  9993
2 54651  87.9273 309.7440 0001885 112.6244 247.5090 13.21826034127971
ONEWEB-0585             
1 54652U 22166L   25204.21058836 -.00000022  00000+0 -85907-4 0  9993
2 54652  87.9272 309.6049 0001913  96.1689 263.9662 13.21827544128533
ONEWEB-0586             
1 54653U 22166M   25204.22320684  .00000028  00000+0  35528-4 0  9996
2 54653  87.9276 309.6258 0002018 105.2532 254.8825 13.21825367128537
ONEWEB-0587             
1 54654U 22166N   25203.85418383  .00000043  00000+0  72364-4 0  9995
2 54654  87.9273 309.6476 0001923  93.8736 266.2617 13.21826520128638
